KUIPER-00027            
1 63740U 25088S   25265.25003472 -.00043537  00000+0 -56793-2 0  9991
2 63740  51.8991 120.1752 0003878 329.8429 197.2921 14.80216331  5607
KUIPER-00028            
1 63741U 25088T   25265.25003472 -.01769924  00000+0 -22232+0 0  9996
2 63741  51.8966 118.2654 0004053   7.0517   2.7069 14.85140043  5882
KUIPER-00029            
1 63742U 25088U   25265.25003472 -.00988249  00000+0 -94125-1 0  9991
2 63742  51.9015 116.7566 0006845 300.5073 314.5576 14.95826017  5041
KUIPER-00030            
1 63743U 25088V   25265.02200120  .00002389  00000+0  34211-3 0  9998
2 63743  51.9012 136.3793 0013026 235.0707 124.9032 14.79945973 22655
KUIPER-00031            
1 63744U 25088W   25265.03694831  .00001389  00000+0  21168-3 0  9992
2 63744  51.8995 122.3961 0002983 258.8627 101.2000 14.79845562 22567
KUIPER-00032            
1 63745U 25088X   25264.83300977  .00015755  00000+0  54152-3 0  9996
2 63745  51.8718 116.1689 0004516 226.4521 133.6088 15.30253176 23633
KUIPER-00033            
1 63746U 25088Y   25265.07174262  .00008083  00000+0  10879-2 0  9993
2 63746  51.8994 152.2183 0003643   5.2728 354.8272 14.79936429 22634
KUIPER-00034            
1 63747U 25088Z   25265.25003472 -.01885875  00000+0 -15703+0 0  9991
2 63747  51.8859 114.5127 0002161 218.5458 187.9672 15.02069663  5923
